NORAD_CAT_ID,OBJECT_NAME,OBJECT_TYPE,EPOCH,MEAN_MOTION,ECCENTRICITY,INCLINATION,RA_OF_ASC_NODE,ARG_OF_PERICENTER,MEAN_ANOMALY,BSTAR,MEAN_MOTION_DOT,MEAN_MOTION_DDOT,TLE_LINE0,TLE_LINE1,TLE_LINE2,SEMIMAJOR_AXIS,PERIOD,APOGEE,PERIGEE,DECAYED
55419.0,STARLINK-5629,PAYLOAD,2023-10-02 02:41:13,14.9833682,0.0002991,70.0001,167.3359,269.2471,90.8346,-1.1295e-05,-2.28e-06,0.0,0 STARLINK-5629,1 55419U 23014AE  23275.11196582 -.00000228  00000-0 -11295-4 0  9992,2 55419  70.0001 167.3359 0002991 269.2471  90.8346 14.98336820 37374,6950.172,96.107,574.116,569.958,0.0
55419.0,STARLINK-5629,PAYLOAD,2023-10-02 20:18:43,14.98321112,0.0003011,70.0002,165.484,266.4612,93.6203,0.00015832,1.796e-05,0.0,0 STARLINK-5629,1 55419U 23014AE  23275.84633110  .00001796  00000-0  15832-3 0  9994,2 55419  70.0002 165.4840 0003011 266.4612  93.6203 14.98321112 37482,6950.22,96.108,574.178,569.993,0.0
55419.0,STARLINK-5629,PAYLOAD,2023-10-03 02:43:14,14.98331699,0.0002968,69.9998,164.8119,268.3201,91.7618,0.00010039,1.105e-05,0.0,0 STARLINK-5629,1 55419U 23014AE  23276.11336652  .00001105  00000-0  10039-3 0  9994,2 55419  69.9998 164.8119 0002968 268.3201  91.7618 14.98331699 37525,6950.188,96.107,574.115,569.99,0.0
55419.0,STARLINK-5629,PAYLOAD,2023-10-03 20:20:44,14.98325856,0.0002931,70.0003,162.9607,268.1351,91.9472,2.1243e-05,1.6e-06,0.0,0 STARLINK-5629,1 55419U 23014AE  23276.84773298  .00000160  00000-0  21243-4 0  9995,2 55419  70.0003 162.9607 0002931 268.1351  91.9472 14.98325856 38574,6950.206,96.107,574.108,570.034,0.0
55419.0,STARLINK-5629,PAYLOAD,2023-10-04 09:09:48,14.98330249,0.0002779,70.0002,161.6134,268.6781,91.406,6.2999e-05,6.59e-06,0.0,0 STARLINK-5629,1 55419U 23014AE  23277.38180879  .00000659  00000-0  62999-4 0  9998,2 55419  70.0002 161.6134 0002779 268.6781  91.4060 14.98330249 38655,6950.192,96.107,573.989,570.126,0.0
55419.0,STARLINK-5629,PAYLOAD,2023-10-04 18:46:36,14.9833428,0.0002805,69.9999,160.6028,269.5231,90.5607,3.6591e-05,3.44e-06,0.0,0 STARLINK-5629,1 55419U 23014AE  23277.78236569  .00000344  00000-0  36591-4 0  9990,2 55419  69.9999 160.6028 0002805 269.5231  90.5607 14.98334280 37776,6950.18,96.107,573.994,570.095,0.0
55419.0,STARLINK-5629,PAYLOAD,2023-10-04 21:58:52,14.98333624,0.0002833,69.9999,160.2666,267.4665,92.617,3.7822e-05,3.58e-06,0.0,0 STARLINK-5629,1 55419U 23014AE  23277.91588562  .00000358  00000-0  37822-4 0  9991,2 55419  69.9999 160.2666 0002833 267.4665  92.6170 14.98333624 38735,6950.182,96.107,574.016,570.078,0.0
55419.0,STARLINK-5629,PAYLOAD,2023-10-05 02:47:15,14.98342386,0.0003185,69.9989,159.7611,265.9119,94.1676,0.00010577,1.17e-05,0.0,0 STARLINK-5629,1 55419U 23014AE  23278.11615562  .00001170  00000-0  10577-3 0  9995,2 55419  69.9989 159.7611 0003185 265.9119  94.1676 14.98342386 37827,6950.155,96.106,574.233,569.806,0.0
55419.0,STARLINK-5629,PAYLOAD,2023-10-05 09:11:49,14.98329467,0.0002733,69.9994,159.0888,273.1346,86.95,-9.204e-05,-1.191e-05,0.0,0 STARLINK-5629,1 55419U 23014AE  23278.38320994 -.00001191  00000-0 -92040-4 0  9997,2 55419  69.9994 159.0888 0002733 273.1346  86.9500 14.98329467 37867,6950.195,96.107,573.959,570.16,0.0
55419.0,STARLINK-5629,PAYLOAD,2023-10-05 22:00:53,14.98326621,0.000281,70.0004,157.7433,262.815,97.269,-4.9069e-05,-6.78e-06,0.0,0 STARLINK-5629,1 55419U 23014AE  23278.91729077 -.00000678  00000-0 -49069-4 0  9993,2 55419  70.0004 157.7433 0002810 262.8150  97.2690 14.98326621 38884,6950.203,96.107,574.021,570.115,0.0
55419.0,STARLINK-5629,PAYLOAD,2023-10-06 09:13:50,14.98328794,0.000282,70.0003,156.5638,270.8829,89.2007,-3.7316e-05,-5.38e-06,0.0,0 STARLINK-5629,1 55419U 23014AE  23279.38460959 -.00000538  00000-0 -37316-4 0  9993,2 55419  70.0003 156.5638 0002820 270.8829  89.2007 14.98328794 38011,6950.197,96.107,574.022,570.102,0.0
55419.0,STARLINK-5629,PAYLOAD,2023-10-06 22:02:54,14.98329475,0.0003068,70.0001,155.219,264.6683,95.4126,-9.5931e-05,-1.237e-05,0.0,0 STARLINK-5629,1 55419U 23014AE  23279.91869075 -.00001237  00000-0 -95931-4 0  9998,2 55419  70.0001 155.2190 0003068 264.6683  95.4126 14.98329475 39033,6950.195,96.107,574.192,569.927,0.0
55419.0,STARLINK-5629,PAYLOAD,2023-10-07 09:15:51,14.98333932,0.0003082,69.9992,154.0388,268.8502,91.2304,-9.666e-05,-1.246e-05,0.0,0 STARLINK-5629,1 55419U 23014AE  23280.38600738 -.00001246  00000-0 -96660-4 0  9990,2 55419  69.9992 154.0388 0003082 268.8502  91.2304 14.98333932 38165,6950.181,96.107,574.188,569.904,0.0
55419.0,STARLINK-5629,PAYLOAD,2023-10-07 22:04:55,14.98326507,0.0003234,69.9991,152.6923,268.72,91.3588,2.7954e-05,2.4e-06,0.0,0 STARLINK-5629,1 55419U 23014AE  23280.92008994  .00000240  00000-0  27954-4 0  9997,2 55419  69.9991 152.6923 0003234 268.7200  91.3588 14.98326507 39184,6950.204,96.107,574.316,569.821,0.0
55419.0,STARLINK-5629,PAYLOAD,2023-10-08 09:17:51,14.98333532,0.0003267,69.9991,151.514,266.448,93.6306,1.2853e-05,6e-07,0.0,0 STARLINK-5629,1 55419U 23014AE  23281.38740518  .00000060  00000-0  12853-4 0  9995,2 55419  69.9991 151.5140 0003267 266.4480  93.6306 14.98333532 38317,6950.182,96.107,574.318,569.776,0.0
55419.0,STARLINK-5629,PAYLOAD,2023-10-08 22:06:56,14.98327521,0.0003028,69.9997,150.168,267.5935,92.4877,0.00018147,2.073e-05,0.0,0 STARLINK-5629,1 55419U 23014AE  23281.92148546  .00002073  00000-0  18147-3 0  9995,2 55419  69.9997 150.1680 0003028 267.5935  92.4877 14.98327521 39333,6950.201,96.107,574.17,569.961,0.0
55419.0,STARLINK-5629,PAYLOAD,2023-10-09 01:19:12,14.98333474,0.0003042,69.9997,149.8313,268.9186,91.1624,0.00012303,1.375e-05,0.0,0 STARLINK-5629,1 55419U 23014AE  23282.05500315  .00001375  00000-0  12303-3 0  9998,2 55419  69.9997 149.8313 0003042 268.9186  91.1624 14.98333474 39352,6950.182,96.107,574.161,569.933,0.0
55419.0,STARLINK-5629,PAYLOAD,2023-10-09 18:56:41,14.98326442,0.000296,69.9997,147.9797,269.2873,90.7947,-7.9287e-06,-1.88e-06,0.0,0 STARLINK-5629,1 55419U 23014AE  23282.78937100 -.00000188  00000-0 -79287-5 0  9993,2 55419  69.9997 147.9797 0002960 269.2873  90.7947 14.98326442 38520,6950.204,96.107,574.126,570.012,0.0
55419.0,STARLINK-5629,PAYLOAD,2023-10-09 20:32:49,14.98327455,0.0002877,70.0,147.8113,269.4715,90.6114,-1.0761e-06,-1.06e-06,0.0,0 STARLINK-5629,1 55419U 23014AE  23282.85613053 -.00000106  00000-0 -10761-5 0  9991,2 55419  70.0000 147.8113 0002877 269.4715  90.6114 14.98327455 39478,6950.201,96.107,574.065,570.066,0.0
55419.0,STARLINK-5629,PAYLOAD,2023-10-10 07:45:45,14.9832924,0.000276,70.0,146.6332,261.1903,98.8944,3.2841e-06,-5.4e-07,0.0,0 STARLINK-5629,1 55419U 23014AE  23283.32344900 -.00000054  00000-0  32841-5 0  9990,2 55419  70.0000 146.6332 0002760 261.1903  98.8944 14.98329240 39540,6950.195,96.107,573.978,570.142,0.0
55419.0,STARLINK-5629,PAYLOAD,2023-10-10 18:58:42,14.98333024,0.0002917,69.9995,145.4551,269.8232,90.2593,2.639e-06,-6.2e-07,0.0,0 STARLINK-5629,1 55419U 23014AE  23283.79076598 -.00000062  00000-0  26390-5 0  9997,2 55419  69.9995 145.4551 0002917 269.8232  90.2593 14.98333024 38678,6950.184,96.107,574.076,570.021,0.0
55419.0,STARLINK-5629,PAYLOAD,2023-10-10 22:10:58,14.98345272,0.0002487,69.9994,145.1179,267.2587,92.8288,-0.00021324,-2.637e-05,0.0,0 STARLINK-5629,1 55419U 23014AE  23283.92428376 -.00002637  00000-0 -21324-3 0  9998,2 55419  69.9994 145.1179 0002487 267.2587  92.8288 14.98345272 39631,6950.146,96.106,573.739,570.282,0.0
55419.0,STARLINK-5629,PAYLOAD,2023-10-11 07:47:46,14.98340876,0.0002893,69.9997,144.1075,273.5276,86.5552,-0.00016174,-2.023e-05,0.0,0 STARLINK-5629,1 55419U 23014AE  23284.32484312 -.00002023  00000-0 -16174-3 0  9991,2 55419  69.9997 144.1075 0002893 273.5276  86.5552 14.98340876 39699,6950.159,96.106,574.035,570.014,0.0
55419.0,STARLINK-5629,PAYLOAD,2023-10-11 19:00:43,14.98295902,0.0002759,69.9997,142.93,265.4616,94.6227,0.0004515,5.294e-05,0.0,0 STARLINK-5629,1 55419U 23014AE  23284.79217508  .00005294  00000-0  45150-3 0  9990,2 55419  69.9997 142.9300 0002759 265.4616  94.6227 14.98295902 38827,6950.298,96.109,574.081,570.246,0.0
55419.0,STARLINK-5629,PAYLOAD,2023-10-11 23:49:07,14.98309826,0.0002754,70.0,142.4254,259.9888,100.0961,0.00028392,3.295e-05,0.0,0 STARLINK-5629,1 55419U 23014AE  23284.99245338  .00003295  00000-0  28392-3 0  9992,2 55419  70.0000 142.4254 0002754 259.9888 100.0961 14.98309826 38853,6950.255,96.108,574.034,570.206,0.0
55419.0,STARLINK-5629,PAYLOAD,2023-10-12 07:49:47,14.98328085,0.000268,70.0001,141.5843,270.6548,89.4304,1.6235e-05,1.01e-06,0.0,0 STARLINK-5629,1 55419U 23014AE  23285.32624963  .00000101  00000-0  16235-4 0  9992,2 55419  70.0001 141.5843 0002680 270.6548  89.4304 14.98328085 38904,6950.199,96.107,573.926,570.201,0.0
55419.0,STARLINK-5629,PAYLOAD,2023-10-12 22:15:00,14.9833288,0.0002753,69.9999,140.0694,262.4222,97.6624,2.648e-05,2.23e-06,0.0,0 STARLINK-5629,1 55419U 23014AE  23285.92708515  .00000223  00000-0  26480-4 0  9992,2 55419  69.9999 140.0694 0002753 262.4222  97.6624 14.98332880 39932,6950.184,96.107,573.962,570.136,0.0
55419.0,STARLINK-5629,PAYLOAD,2023-10-13 07:51:48,14.98333757,0.0002989,69.9993,139.0579,269.8799,90.2018,-1.3404e-05,-2.53e-06,0.0,0 STARLINK-5629,1 55419U 23014AE  23286.32764444 -.00000253  00000-0 -13404-4 0  9997,2 55419  69.9993 139.0579 0002989 269.8799  90.2018 14.98333757 39050,6950.181,96.107,574.124,569.969,0.0
55419.0,STARLINK-5629,PAYLOAD,2023-10-13 20:40:53,14.98330162,0.0002826,69.9991,137.7116,266.4657,93.6178,5.5427e-05,5.68e-06,0.0,0 STARLINK-5629,1 55419U 23014AE  23286.86172512  .00000568  00000-0  55427-4 0  9993,2 55419  69.9991 137.7116 0002826 266.4657  93.6178 14.98330162 40071,6950.192,96.107,574.022,570.093,0.0
55419.0,STARLINK-5629,PAYLOAD,2023-10-14 07:53:49,14.98329287,0.0002827,69.9994,136.5336,271.3211,88.7625,8.5872e-07,-8.3e-07,0.0,0 STARLINK-5629,1 55419U 23014AE  23287.32904658 -.00000083  00000-0  85872-6 0  9991,2 55419  69.9994 136.5336 0002827 271.3211  88.7625 14.98329287 39208,6950.195,96.107,574.025,570.095,0.0
